O3B MPOWER F1           
1 54755U 22174A   24028.83606637 -.00000021  00000+0  00000+0 0  9999
2 54755   0.0602  11.0999 0006265 308.2965  72.1386  5.00118491 21815
